NORAD_CAT_ID,OBJECT_NAME,OBJECT_TYPE,EPOCH,MEAN_MOTION,ECCENTRICITY,INCLINATION,RA_OF_ASC_NODE,ARG_OF_PERICENTER,MEAN_ANOMALY,BSTAR,MEAN_MOTION_DOT,MEAN_MOTION_DDOT,TLE_LINE0,TLE_LINE1,TLE_LINE2,SEMIMAJOR_AXIS,PERIOD,APOGEE,PERIGEE,DECAYED
53713.0,STARLINK-4698,PAYLOAD,2023-02-27 12:13:46,15.0884574,0.0001208,53.2177,179.5552,99.7789,260.3339,5.6261e-05,6.08e-06,0.0,0 STARLINK-4698,1 53713U 22107P   23058.50957164  .00000608  00000-0  56261-4 0  9994,2 53713  53.2177 179.5552 0001208  99.7789 260.3339 15.08845740 26972,6917.863,95.437,540.564,538.892,0.0
53713.0,STARLINK-4698,PAYLOAD,2023-02-27 13:49:09,15.08849383,0.0001185,53.2163,179.2569,87.2972,272.8156,1.4552e-06,-2.65e-06,0.0,0 STARLINK-4698,1 53713U 22107P   23058.57580977 -.00000265  00000-0  14552-5 0  9993,2 53713  53.2163 179.2569 0001185  87.2972 272.8156 15.08849383 27425,6917.852,95.437,540.536,538.897,0.0
53713.0,STARLINK-4698,PAYLOAD,2023-02-28 00:56:52,15.08822408,0.0001449,53.2175,177.1751,83.2217,276.894,-0.00025887,-4.403e-05,0.0,0 STARLINK-4698,1 53713U 22107P   23059.03950109 -.00004403  00000-0 -25887-3 0  9993,2 53713  53.2175 177.1751 0001449  83.2217 276.8940 15.08822408 27052,6917.934,95.439,540.802,538.797,0.0
53713.0,STARLINK-4698,PAYLOAD,2023-02-28 13:39:59,15.08812312,0.0001028,53.2176,174.7991,83.0432,277.0677,-0.00036522,-6.091e-05,0.0,0 STARLINK-4698,1 53713U 22107P   23059.56943545 -.00006091  00000-0 -36522-3 0  9990,2 53713  53.2176 174.7991 0001028  83.0432 277.0677 15.08812312 27572,6917.965,95.439,540.541,539.119,0.0
53713.0,STARLINK-4698,PAYLOAD,2023-02-28 16:50:44,15.08826824,6.4e-05,53.2179,174.2016,115.0819,245.024,-0.0001287,-2.334e-05,0.0,0 STARLINK-4698,1 53713U 22107P   23059.70190812 -.00002334  00000-0 -12870-3 0  9993,2 53713  53.2179 174.2016 0000640 115.0819 245.0240 15.08826824 27598,6917.921,95.438,540.228,539.343,0.0
53713.0,STARLINK-4698,PAYLOAD,2023-03-01 18:16:55,15.08851648,6.99e-05,53.2167,169.444,91.8315,268.2757,0.00086084,0.00013443,0.0,0 STARLINK-4698,1 53713U 22107P   23060.76175458  .00013443  00000-0  86084-3 0  9999,2 53713  53.2167 169.4440 0000699  91.8315 268.2757 15.08851648 27310,6917.845,95.437,540.193,539.226,0.0
53713.0,STARLINK-4698,PAYLOAD,2023-03-02 00:38:28,15.08839,4.03e-05,53.2165,168.2546,131.3045,228.7982,0.00042843,6.537e-05,0.0,0 STARLINK-4698,1 53713U 22107P   23061.02671844  .00006537  00000-0  42843-3 0  9990,2 53713  53.2165 168.2546 0000403 131.3045 228.7982 15.08839000 27358,6917.883,95.438,540.027,539.47,0.0
53713.0,STARLINK-4698,PAYLOAD,2023-03-02 18:07:42,15.08881163,5.88e-05,53.2168,164.9843,107.5275,252.5782,0.0018997,0.00030109,0.0,0 STARLINK-4698,1 53713U 22107P   23061.75534728  .00030109  00000-0  18997-2 0  9993,2 53713  53.2168 164.9843 0000588 107.5275 252.5782 15.08881163 27909,6917.755,95.435,540.026,539.213,0.0
53713.0,STARLINK-4698,PAYLOAD,2023-03-03 11:36:55,15.08884401,4.27e-05,53.2174,161.7139,105.4013,254.7026,0.0025664,0.00040843,0.0,0 STARLINK-4698,1 53713U 22107P   23062.48398142  .00040843  00000-0  25664-2 0  9997,2 53713  53.2174 161.7139 0000427 105.4013 254.7026 15.08884401 27574,6917.745,95.435,539.905,539.314,0.0
53713.0,STARLINK-4698,PAYLOAD,2023-03-03 17:58:27,15.08907354,4.93e-05,53.2173,160.5239,108.8253,251.2792,0.0029699,0.00047383,0.0,0 STARLINK-4698,1 53713U 22107P   23062.74893165  .00047383  00000-0  29699-2 0  9999,2 53713  53.2173 160.5239 0000493 108.8253 251.2792 15.08907354 28056,6917.675,95.433,539.881,539.198,0.0
53713.0,STARLINK-4698,PAYLOAD,2023-03-04 11:27:42,15.08859045,9.49e-05,53.2175,157.2527,117.3273,242.7816,0.0030216,0.00048155,0.0,0 STARLINK-4698,1 53713U 22107P   23063.47757957  .00048155  00000-0  30216-2 0  9993,2 53713  53.2175 157.2527 0000949 117.3273 242.7816 15.08859045 27722,6917.822,95.436,540.344,539.031,0.0
53713.0,STARLINK-4698,PAYLOAD,2023-03-04 17:49:15,15.08870991,9.94e-05,53.2175,156.0634,101.9222,258.1882,0.002645,0.00042095,0.0,0 STARLINK-4698,1 53713U 22107P   23063.74253735  .00042095  00000-0  26450-2 0  9990,2 53713  53.2175 156.0634 0000994 101.9222 258.1882 15.08870991 28202,6917.786,95.436,540.338,538.963,0.0
53713.0,STARLINK-4698,PAYLOAD,2023-03-04 22:35:24,15.08828091,0.0001178,53.2183,155.1714,149.6309,210.4751,-0.0015881,-0.00025465,0.0,0 STARLINK-4698,1 53713U 22107P   23063.94126055 -.00025465  00000-0 -15881-2 0  9996,2 53713  53.2183 155.1714 0001178 149.6309 210.4751 15.08828091 27793,6917.917,95.438,540.597,538.967,0.0
53713.0,STARLINK-4698,PAYLOAD,2023-03-05 22:26:12,15.08873583,8.88e-05,53.2185,150.7118,83.5357,276.5736,0.0020614,0.00032702,0.0,0 STARLINK-4698,1 53713U 22107P   23064.93486133  .00032702  00000-0  20614-2 0  9992,2 53713  53.2185 150.7118 0000888  83.5357 276.5736 15.08873583 27949,6917.778,95.435,540.257,539.028,0.0
53713.0,STARLINK-4698,PAYLOAD,2023-03-06 11:09:17,15.0886146,0.0001065,53.2174,148.3331,85.6868,274.4245,0.0025521,0.00040587,0.0,0 STARLINK-4698,1 53713U 22107P   23065.46478039  .00040587  00000-0  25521-2 0  9999,2 53713  53.2174 148.3331 0001065  85.6868 274.4245 15.08861460 28028,6917.815,95.436,540.417,538.943,0.0
53713.0,STARLINK-4698,PAYLOAD,2023-03-06 15:55:25,15.08884691,0.0001123,53.2175,147.44,78.4162,281.6956,0.0030001,0.00047841,0.0,0 STARLINK-4698,1 53713U 22107P   23065.66349530  .00047841  00000-0  30001-2 0  9993,2 53713  53.2175 147.4400 0001123  78.4162 281.6956 15.08884691 28499,6917.744,95.435,540.386,538.832,0.0
53713.0,STARLINK-4698,PAYLOAD,2023-03-07 09:24:41,15.08834937,0.0001205,53.2174,144.1692,108.8667,251.2456,0.002374,0.00037691,0.0,0 STARLINK-4698,1 53713U 22107P   23066.39214796  .00037691  00000-0  23740-2 0  9993,2 53713  53.2174 144.1692 0001205 108.8667 251.2456 15.08834937 28164,6917.896,95.438,540.594,538.927,0.0
53713.0,STARLINK-4698,PAYLOAD,2023-03-07 22:07:47,15.08813641,0.0001539,53.2173,141.7907,84.4941,275.6227,0.0034868,0.00055602,0.0,0 STARLINK-4698,1 53713U 22107P   23066.92207247  .00055602  00000-0  34868-2 0  9990,2 53713  53.2173 141.7907 0001539  84.4941 275.6227 15.08813641 28681,6917.961,95.439,540.891,538.761,0.0
53713.0,STARLINK-4698,PAYLOAD,2023-03-08 14:01:38,15.08863778,0.0001542,53.2181,138.8142,89.129,270.9879,0.0041147,0.00065853,0.0,0 STARLINK-4698,1 53713U 22107P   23067.58447722  .00065853  00000-0  41147-2 0  9994,2 53713  53.2181 138.8142 0001542  89.1290 270.9879 15.08863778 28341,6917.808,95.436,540.739,538.606,0.0
53713.0,STARLINK-4698,PAYLOAD,2023-03-08 21:58:34,15.08869443,7.69e-05,53.2167,137.3302,120.1286,239.9783,0.0022329,0.00035456,0.0,0 STARLINK-4698,1 53713U 22107P   23067.91567251  .00035456  00000-0  22329-2 0  9998,2 53713  53.2167 137.3302 0000769 120.1286 239.9783 15.08869443 28397,6917.79,95.436,540.187,539.123,0.0
53713.0,STARLINK-4698,PAYLOAD,2023-03-09 10:41:39,15.08870392,0.0001762,53.2154,134.9508,95.9822,264.1371,0.0015977,0.00025252,0.0,0 STARLINK-4698,1 53713U 22107P   23068.44559073  .00025252  00000-0  15977-2 0  9994,2 53713  53.2154 134.9508 0001762  95.9822 264.1371 15.08870392 28470,6917.787,95.436,540.871,538.434,0.0
53713.0,STARLINK-4698,PAYLOAD,2023-03-09 21:49:20,15.08863889,0.0001762,53.2162,132.8697,80.7535,279.3656,0.0014151,0.0002232,0.0,0 STARLINK-4698,1 53713U 22107P   23068.90926898  .00022320  00000-0  14151-2 0  9994,2 53713  53.2162 132.8697 0001762  80.7535 279.3656 15.08863889 28981,6917.807,95.436,540.891,538.453,0.0
53713.0,STARLINK-4698,PAYLOAD,2023-03-10 04:10:53,15.08855927,0.0002223,53.2167,131.6796,91.4081,268.7166,0.0012421,0.00019544,0.0,0 STARLINK-4698,1 53713U 22107P   23069.17422875  .00019544  00000-0  12421-2 0  9992,2 53713  53.2167 131.6796 0002223  91.4081 268.7166 15.08855927 28589,6917.832,95.437,541.235,538.159,0.0
53713.0,STARLINK-4698,PAYLOAD,2023-03-10 10:32:25,15.08859061,0.0001356,53.2158,130.4893,99.6063,260.5082,0.00050971,7.838e-05,0.0,0 STARLINK-4698,1 53713U 22107P   23069.43918317  .00007838  00000-0  50971-3 0  9998,2 53713  53.2158 130.4893 0001356  99.6063 260.5082 15.08859061 28625,6917.822,95.436,540.625,538.749,0.0
53713.0,STARLINK-4698,PAYLOAD,2023-03-11 07:12:27,15.08832855,8.88e-05,53.2166,126.6248,103.8545,256.2546,0.00042656,6.506e-05,0.0,0 STARLINK-4698,1 53713U 22107P   23070.30031415  .00006506  00000-0  42656-3 0  9993,2 53713  53.2166 126.6248 0000888 103.8545 256.2546 15.08832855 28750,6917.902,95.438,540.382,539.153,0.0
53713.0,STARLINK-4698,PAYLOAD,2023-03-11 13:33:59,15.08832863,0.0001055,53.2169,125.4341,77.0726,283.0384,0.00043606,6.658e-05,0.0,0 STARLINK-4698,1 53713U 22107P   23070.56527741  .00006658  00000-0  43606-3 0  9997,2 53713  53.2169 125.4341 0001055  77.0726 283.0384 15.08832863 29235,6917.902,95.438,540.497,539.037,0.0
53713.0,STARLINK-4698,PAYLOAD,2023-03-11 15:09:23,15.08837771,0.0001097,53.2179,125.138,77.5597,282.5518,0.0006173,9.549e-05,0.0,0 STARLINK-4698,1 53713U 22107P   23070.63151694  .00009549  00000-0  61730-3 0  9995,2 53713  53.2179 125.1380 0001097  77.5597 282.5518 15.08837771 29240,6917.887,95.438,540.511,538.993,0.0
53713.0,STARLINK-4698,PAYLOAD,2023-03-12 03:52:28,15.08826678,0.0001435,53.2166,122.7587,113.8106,246.3036,0.0004881,7.486e-05,0.0,0 STARLINK-4698,1 53713U 22107P   23071.16144347  .00007486  00000-0  48810-3 0  9993,2 53713  53.2166 122.7587 0001435 113.8106 246.3036 15.08826678 28880,6917.921,95.438,540.779,538.793,0.0
53713.0,STARLINK-4698,PAYLOAD,2023-03-12 10:14:01,15.08836791,0.000148,53.218,121.5698,114.3191,245.7956,0.0013619,0.00021451,0.0,0 STARLINK-4698,1 53713U 22107P   23071.42640453  .00021451  00000-0  13619-2 0  9997,2 53713  53.2180 121.5698 0001480 114.3191 245.7956 15.08836791 28922,6917.89,95.438,540.779,538.731,0.0
53713.0,STARLINK-4698,PAYLOAD,2023-03-13 13:15:33,15.08861397,0.0001323,53.2171,116.5161,101.1563,258.9578,0.0006465,0.00010022,0.0,0 STARLINK-4698,1 53713U 22107P   23072.55247626  .00010022  00000-0  64650-3 0  9991,2 53713  53.2171 116.5161 0001323 101.1563 258.9578 15.08861397 29099,6917.815,95.436,540.595,538.765,0.0
